STARLINK-3967           
1 52636U 22052AQ  26068.83704964 -.00000328  00000+0 -25347-5 0  9996
2 52636  53.2163 268.4577 0001080 130.5297 229.5790 15.08845199211018
LEMUR-2-LANGER2SPACE    
1 63358U 25061H   26068.93705617  .00006238  00000+0  35148-3 0  9991
2 63358  97.5541  45.3892 0015335 237.4180 122.5571 15.13463796 52602
